{
  "type": "FeatureCollection",
  "features": [
    {
      "type": "Feature",
      "properties": {
        "norad_id": 34088,
        "name": "IRIDIUM 33 DEB",
        "group": "iridium-33-debris",
        "lat": -4.868638831941983,
        "lon": 24.245104639885703,
        "alt_km": 599.2375848175288,
        "timestamp": "2025-12-26T03:50:12.478538+00:00",
        "meta_object_name": "IRIDIUM 33 DEB",
        "meta_object_id": "1997-051CX",
        "meta_epoch": "2025-12-25T13:54:21.561408",
        "meta_mean_motion": 14.91956095,
        "meta_eccentricity": 0.0007066,
        "meta_inclination": 86.3844,
        "meta_ra_of_asc_node": 24.8206,
        "meta_arg_of_pericenter": 136.8493,
        "meta_mean_anomaly": 342.8707,
        "meta_ephemeris_type": 0,
        "meta_classification_type": "U",
        "meta_norad_cat_id": 34088,
        "meta_element_set_no": 999,
        "meta_rev_at_epoch": 88933,
        "meta_bstar": 0.0024865,
        "meta_mean_motion_dot": 0.00025266,
        "meta_mean_motion_ddot": 0,
        "tle_line1": "1 34088U 97051CX  25359.57941622  .00025266  00000+0  24865-2 0  9992",
        "tle_line2": "2 34088  86.3844  24.8206 0007066 136.8493 342.8707 14.91956095889334"
      },
      "geometry": {
        "type": "Point",
        "coordinates": [
          24.245104639885703,
          -4.868638831941983
        ]
      }
    },
    {
      "type": "Feature",
      "properties": {
        "norad_id": 34091,
        "name": "IRIDIUM 33 DEB",
        "group": "iridium-33-debris",
        "lat": 86.02244143603536,
        "lon": 127.65376048299642,
        "alt_km": 635.1071531252592,
        "timestamp": "2025-12-26T03:50:12.478549+00:00",
        "meta_object_name": "IRIDIUM 33 DEB",
        "meta_object_id": "1997-051DA",
        "meta_epoch": "2025-12-25T16:05:58.410816",
        "meta_mean_motion": 14.82763953,
        "meta_eccentricity": 0.0034351,
        "meta_inclination": 86.341,
        "meta_ra_of_asc_node": 60.9075,
        "meta_arg_of_pericenter": 246.9667,
        "meta_mean_anomaly": 112.7932,
        "meta_ephemeris_type": 0,
        "meta_classification_type": "U",
        "meta_norad_cat_id": 34091,
        "meta_element_set_no": 999,
        "meta_rev_at_epoch": 88058,
        "meta_bstar": 0.0047742,
        "meta_mean_motion_dot": 0.00039162,
        "meta_mean_motion_ddot": 0,
        "tle_line1": "1 34091U 97051DA  25359.67081494  .00039162  00000+0  47742-2 0  9998",
        "tle_line2": "2 34091  86.3410  60.9075 0034351 246.9667 112.7932 14.82763953880586"
      },
      "geometry": {
        "type": "Point",
        "coordinates": [
          127.65376048299642,
          86.02244143603536
        ]
      }
    },
    {
      "type": "Feature",
      "properties": {
        "norad_id": 34097,
        "name": "IRIDIUM 33 DEB",
        "group": "iridium-33-debris",
        "lat": -25.926271886939215,
        "lon": 177.33473650302253,
        "alt_km": 802.9628850131912,
        "timestamp": "2025-12-26T03:50:12.478560+00:00",
        "meta_object_name": "IRIDIUM 33 DEB",
        "meta_object_id": "1997-051DG",
        "meta_epoch": "2025-12-25T00:05:41.421696",
        "meta_mean_motion": 14.34875051,
        "meta_eccentricity": 0.00814136,
        "meta_inclination": 86.2004,
        "meta_ra_of_asc_node": 355.9934,
        "meta_arg_of_pericenter": 322.038,
        "meta_mean_anomaly": 37.5093,
        "meta_ephemeris_type": 0,
        "meta_classification_type": "U",
        "meta_norad_cat_id": 34097,
        "meta_element_set_no": 999,
        "meta_rev_at_epoch": 87295,
        "meta_bstar": 0.001672202,
        "meta_mean_motion_dot": 4.948e-05,
        "meta_mean_motion_ddot": 0,
        "tle_line1": "1 34097U 97051DG  25359.00395164  .00004948  00000+0  16722-2 0  9991",
        "tle_line2": "2 34097  86.2004 355.9934 0081413 322.0380  37.5093 14.34875051872954"
      },
      "geometry": {
        "type": "Point",
        "coordinates": [
          177.33473650302253,
          -25.926271886939215
        ]
      }
    },
    {
      "type": "Feature",
      "properties": {
        "norad_id": 34145,
        "name": "IRIDIUM 33 DEB",
        "group": "iridium-33-debris",
        "lat": 61.03032749503648,
        "lon": 139.6780562497097,
        "alt_km": 729.5294950620455,
        "timestamp": "2025-12-26T03:50:12.478571+00:00",
        "meta_object_name": "IRIDIUM 33 DEB",
        "meta_object_id": "1997-051DY",
        "meta_epoch": "2025-12-25T03:59:02.088960",
        "meta_mean_motion": 14.42378042,
        "meta_eccentricity": 0.0055477,
        "meta_inclination": 86.2128,
        "meta_ra_of_asc_node": 326.9922,
        "meta_arg_of_pericenter": 54.349,
        "meta_mean_anomaly": 306.2857,
        "meta_ephemeris_type": 0,
        "meta_classification_type": "U",
        "meta_norad_cat_id": 34145,
        "meta_element_set_no": 999,
        "meta_rev_at_epoch": 87817,
        "meta_bstar": 0.0013219,
        "meta_mean_motion_dot": 4.47e-05,
        "meta_mean_motion_ddot": 0,
        "tle_line1": "1 34145U 97051DY  25359.16599640  .00004470  00000+0  13219-2 0  9995",
        "tle_line2": "2 34145  86.2128 326.9922 0055477  54.3490 306.2857 14.42378042878179"
      },
      "geometry": {
        "type": "Point",
        "coordinates": [
          139.6780562497097,
          61.03032749503648
        ]
      }
    },
    {
      "type": "Feature",
      "properties": {
        "norad_id": 34146,
        "name": "IRIDIUM 33 DEB",
        "group": "iridium-33-debris",
        "lat": 80.55982310112421,
        "lon": 6.878705627311899,
        "alt_km": 722.5035466656582,
        "timestamp": "2025-12-26T03:50:12.478582+00:00",
        "meta_object_name": "IRIDIUM 33 DEB",
        "meta_object_id": "1997-051DZ",
        "meta_epoch": "2025-12-25T11:29:22.361856",
        "meta_mean_motion": 14.491292,
        "meta_eccentricity": 0.0026943,
        "meta_inclination": 86.2842,
        "meta_ra_of_asc_node": 344.172,
        "meta_arg_of_pericenter": 177.7874,
        "meta_mean_anomaly": 312.7294,
        "meta_ephemeris_type": 0,
        "meta_classification_type": "U",
        "meta_norad_cat_id": 34146,
        "meta_element_set_no": 999,
        "meta_rev_at_epoch": 88291,
        "meta_bstar": 0.00090456,
        "meta_mean_motion_dot": 3.474e-05,
        "meta_mean_motion_ddot": 0,
        "tle_line1": "1 34146U 97051DZ  25359.47873104  .00003474  00000+0  90456-3 0  9992",
        "tle_line2": "2 34146  86.2842 344.1720 0026943 177.7874 312.7294 14.49129200882914"
      },
      "geometry": {
        "type": "Point",
        "coordinates": [
          6.878705627311899,
          80.55982310112421
        ]
      }
    },
    {
      "type": "Feature",
      "properties": {
        "norad_id": 34159,
        "name": "IRIDIUM 33 DEB",
        "group": "iridium-33-debris",
        "lat": 6.101645185680634,
        "lon": 42.90926969361144,
        "alt_km": 776.4944736386751,
        "timestamp": "2025-12-26T03:50:12.478593+00:00",
        "meta_object_name": "IRIDIUM 33 DEB",
        "meta_object_id": "1997-051EN",
        "meta_epoch": "2025-12-25T12:47:00.400128",
        "meta_mean_motion": 14.38524425,
        "meta_eccentricity": 0.0026262,
        "meta_inclination": 86.3493,
        "meta_ra_of_asc_node": 42.7857,
        "meta_arg_of_pericenter": 242.6608,
        "meta_mean_anomaly": 117.1916,
        "meta_ephemeris_type": 0,
        "meta_classification_type": "U",
        "meta_norad_cat_id": 34159,
        "meta_element_set_no": 999,
        "meta_rev_at_epoch": 88143,
        "meta_bstar": 0.00040229,
        "meta_mean_motion_dot": 1.253e-05,
        "meta_mean_motion_ddot": 0,
        "tle_line1": "1 34159U 97051EN  25359.53264352  .00001253  00000+0  40229-3 0  9998",
        "tle_line2": "2 34159  86.3493  42.7857 0026262 242.6608 117.1916 14.38524425881434"
      },
      "geometry": {
        "type": "Point",
        "coordinates": [
          42.90926969361144,
          6.101645185680634
        ]
      }
    },
    {
      "type": "Feature",
      "properties": {
        "norad_id": 34350,
        "name": "IRIDIUM 33 DEB",
        "group": "iridium-33-debris",
        "lat": 6.863712546042274,
        "lon": -2.5736543076815552,
        "alt_km": 741.831538293015,
        "timestamp": "2025-12-26T03:50:12.478604+00:00",
        "meta_object_name": "IRIDIUM 33 DEB",
        "meta_object_id": "1997-051ES",
        "meta_epoch": "2025-12-24T23:49:25.823136",
        "meta_mean_motion": 14.45414925,
        "meta_eccentricity": 0.00235086,
        "meta_inclination": 86.3273,
        "meta_ra_of_asc_node": 357.4897,
        "meta_arg_of_pericenter": 97.7488,
        "meta_mean_anomaly": 319.833,
        "meta_ephemeris_type": 0,
        "meta_classification_type": "U",
        "meta_norad_cat_id": 34350,
        "meta_element_set_no": 999,
        "meta_rev_at_epoch": 88470,
        "meta_bstar": 0.00034315311,
        "meta_mean_motion_dot": 1.231e-05,
        "meta_mean_motion_ddot": 0,
        "tle_line1": "1 34350U 97051ES  25358.99265999  .00001231  00000+0  34315-3 0  9993",
        "tle_line2": "2 34350  86.3273 357.4897 0023508  97.7488 319.8330 14.45414925884703"
      },
      "geometry": {
        "type": "Point",
        "coordinates": [
          -2.5736543076815552,
          6.863712546042274
        ]
      }
    }
  ]
}